norad_id,name,regime,epoch,line1,line2,inclination,eccentricity,mean_motion,raan,arg_pericenter,mean_anomaly
19751,COSMOS 1989 (ETALON 1),NSO,06206.70515836,1 19751U 89001C   06206.70515836 -.00000076 +00000-0 +10000-3 0 07222\,2 19751 065.5832 321.7455 0014802 223.7585 125.8733 02.13155702136542,65.5832,0.0014802,2.13155702,321.7455,223.7585,125.8733
19751,COSMOS 1989 (ETALON 1),NSO,06207.60359791,1 19751U 89001C   06207.60359791 -.00000072 +00000-0 +10000-3 0 07235\,2 19751 065.5834 321.7155 0014784 223.8679 095.1850 02.13155702136566,65.5834,0.0014784,2.13155702,321.7155,223.8679,95.185
19751,COSMOS 1989 (ETALON 1),NSO,06208.53256235,1 19751U 89001C   06208.53256235 -.00000070  00000-0  10000-3 0  7224\,2 19751 065.5830 321.6842 0014827 223.7596 088.1384 02.13155688136588,65.583,0.0014827,2.13155688,321.6842,223.7596,88.1384
19751,COSMOS 1989 (ETALON 1),NSO,06208.78133718,1 19751U 89001C   06208.78133718 -.00000069 +00000-0 +10000-3 0 07230\,2 19751 065.5829 321.6758 0014827 223.7589 279.0376 02.13155688136597,65.5829,0.0014827,2.13155688,321.6758,223.7589,279.0376
19751,COSMOS 1989 (ETALON 1),NSO,06209.47684998,1 19751U 89001C   06209.47684998 -.00000068 +00000-0 +10000-3 0 07259\,2 19751 065.5825 321.6523 0014805 223.7768 092.7250 02.13155694136608,65.5825,0.0014805,2.13155694,321.6523,223.7768,92.725
19751,COSMOS 1989 (ETALON 1),NSO,06210.42751243,1 19751U 89001C   06210.42751243 -.00000067  00000-0  10000-3 0  7231\,2 19751 065.5821 321.6204 0014805 223.7379 102.2593 02.13155694136627,65.5821,0.0014805,2.13155694,321.6204,223.7379,102.2593
19751,COSMOS 1989 (ETALON 1),NSO,06210.65355892,1 19751U 89001C   06210.65355892 -.00000067 +00000-0 +10000-3 0 07247\,2 19751 065.5818 321.6127 0014786 223.6808 275.7755 02.13155713136630,65.5818,0.0014786,2.13155713,321.6127,223.6808,275.7755
19751,COSMOS 1989 (ETALON 1),NSO,06211.92383433,1 19751U 89001C   06211.92383433 -.00000066 +00000-0 +10000-3 0 07261\,2 19751 065.5817 321.5700 0014780 223.6942 170.5143 02.13155715136666,65.5817,0.001478,2.13155715,321.57,223.6942,170.5143
19751,COSMOS 1989 (ETALON 1),NSO,06212.03116939,1 19751U 89001C   06212.03116939 -.00000066  00000-0  10000-3 0  7247\,2 19751 065.5818 321.5665 0014760 223.6886 252.8848 02.13155727136661,65.5818,0.001476,2.13155727,321.5665,223.6886,252.8848
19751,COSMOS 1989 (ETALON 1),NSO,06212.83498596,1 19751U 89001C   06212.83498596 -.00000066 +00000-0 +10000-3 0 07258\,2 19751 065.5813 321.5393 0014761 223.6862 149.7000 02.13155731136680,65.5813,0.0014761,2.13155731,321.5393,223.6862,149.7
19751,COSMOS 1989 (ETALON 1),NSO,06213.29140787,1 19751U 89001C   06213.29140787 -.00000065  00000-0  10000-3 0  7254\,2 19751 065.5809 321.5243 0014760 223.7058 139.9178 02.13155734136697,65.5809,0.001476,2.13155734,321.5243,223.7058,139.9178
19751,COSMOS 1989 (ETALON 1),NSO,06213.77396503,1 19751U 89001C   06213.77396503 -.00000065 +00000-0 +10000-3 0 07267\,2 19751 065.5805 321.5080 0014762 223.6948 150.2218 02.13155740136701,65.5805,0.0014762,2.1315574,321.508,223.6948,150.2218
19751,COSMOS 1989 (ETALON 1),NSO,06214.73241447,1 19751U 89001C   06214.73241447 -.00000063  00000-0  10000-3 0  7268\,2 19751 065.5795 321.4759 0014750 223.6813 165.7058 02.13155738136721,65.5795,0.001475,2.13155738,321.4759,223.6813,165.7058
19751,COSMOS 1989 (ETALON 1),NSO,06215.58148515,1 19751U 89001C   06215.58148515 -.00000061 +00000-0 +10000-3 0 07273\,2 19751 065.5793 321.4474 0014765 223.6694 097.2570 02.13155749136737,65.5793,0.0014765,2.13155749,321.4474,223.6694,97.257
19751,COSMOS 1989 (ETALON 1),NSO,06216.50605560,1 19751U 89001C   06216.50605560 -.00000058  00000-0  10000-3 0  7270\,2 19751 065.5796 321.4165 0014782 223.6713 086.7290 02.13155755136759,65.5796,0.0014782,2.13155755,321.4165,223.6713,86.729
19751,COSMOS 1989 (ETALON 1),NSO,06217.44274955,1 19751U 89001C   06217.44274955 -.00000054 +00000-0 +10000-3 0 07281\,2 19751 065.5785 321.3847 0014775 223.7394 085.4375 02.13155760136779,65.5785,0.0014775,2.1315576,321.3847,223.7394,85.4375
19751,COSMOS 1989 (ETALON 1),NSO,06218.07021214,1 19751U 89001C   06218.07021214 -.00000052  00000-0  10000-3 0  7287\,2 19751 065.5781 321.3636 0014775 223.7005 206.9640 02.13155785136794,65.5781,0.0014775,2.13155785,321.3636,223.7005,206.964
19751,COSMOS 1989 (ETALON 1),NSO,06218.87452826,1 19751U 89001C   06218.87452826 -.00000049 +00000-0 +10000-3 0 07301\,2 19751 065.5780 321.3364 0014785 223.7270 104.1337 02.13155791136807,65.578,0.0014785,2.13155791,321.3364,223.727,104.1337
19751,COSMOS 1989 (ETALON 1),NSO,06219.07783144,1 19751U 89001C   06219.07783144 -.00000048  00000-0  10000-3 0  7291\,2 19751 065.5779 321.3295 0014809 223.7038 260.1618 02.13155780136811,65.5779,0.0014809,2.1315578,321.3295,223.7038,260.1618
19751,COSMOS 1989 (ETALON 1),NSO,06219.87771042,1 19751U 89001C   06219.87771042 -.00000046 +00000-0 +10000-3 0 07303\,2 19751 065.5773 321.3025 0014833 223.6910 153.9659 02.13155784136831,65.5773,0.0014833,2.13155784,321.3025,223.691,153.9659
19751,COSMOS 1989 (ETALON 1),NSO,06220.35834135,1 19751U 89001C   06220.35834135 -.00000045  00000-0  10000-3 0  7300\,2 19751 065.5777 321.2864 0014850 223.7562 162.7144 02.13155773136844,65.5777,0.001485,2.13155773,321.2864,223.7562,162.7144
19751,COSMOS 1989 (ETALON 1),NSO,06220.74825541,1 19751U 89001C   06220.74825541 -.00000044 +00000-0 +10000-3 0 07314\,2 19751 065.5776 321.2730 0014849 223.6908 101.9833 02.13155787136841,65.5776,0.0014849,2.13155787,321.273,223.6908,101.9833
19751,COSMOS 1989 (ETALON 1),NSO,06221.68674466,1 19751U 89001C   06221.68674466 -.00000044  00000-0  10000-3 0  7316\,2 19751 065.5767 321.2412 0014842 223.6444 102.1845 02.13155792136860,65.5767,0.0014842,2.13155792,321.2412,223.6444,102.1845
19751,COSMOS 1989 (ETALON 1),NSO,06222.63998449,1 19751U 89001C   06222.63998449 -.00000046 +00000-0 +10000-3 0 07325\,2 19751 065.5759 321.2088 0014803 223.6597 113.6433 02.13155804136882,65.5759,0.0014803,2.13155804,321.2088,223.6597,113.6433
19751,COSMOS 1989 (ETALON 1),NSO,06223.17444804,1 19751U 89001C   06223.17444804 -.00000048  00000-0  10000-3 0  7328\,2 19751 065.5756 321.1908 0014803 223.6536 163.7726 02.13155803136905,65.5756,0.0014803,2.13155803,321.1908,223.6536,163.7726
19751,COSMOS 1989 (ETALON 1),NSO,06223.55311343,1 19751U 89001C   06223.55311343 -.00000050 +00000-0 +10000-3 0 07335\,2 19751 065.5752 321.1779 0014813 223.5803 094.4170 02.13155804136908,65.5752,0.0014813,2.13155804,321.1779,223.5803,94.417
19751,COSMOS 1989 (ETALON 1),NSO,06224.54545292,1 19751U 89001C   06224.54545292 -.00000057  00000-0  10000-3 0  7334\,2 19751 065.5750 321.1448 0014792 223.6130 135.8609 02.13155807136921,65.575,0.0014792,2.13155807,321.1448,223.613,135.8609
19751,COSMOS 1989 (ETALON 1),NSO,06224.60393341,1 19751U 89001C   06224.60393341 -.00000057 +00000-0 +10000-3 0 07348\,2 19751 065.5750 321.1428 0014798 223.5999 180.7488 02.13155799136932,65.575,0.0014798,2.13155799,321.1428,223.5999,180.7488
19751,COSMOS 1989 (ETALON 1),NSO,06225.44802648,1 19751U 89001C   06225.44802648 -.00000064 +00000-0 +10000-3 0 07366\,2 19751 065.5737 321.1140 0014791 223.5860 108.4814 02.13155794136944,65.5737,0.0014791,2.13155794,321.114,223.586,108.4814
19751,COSMOS 1989 (ETALON 1),NSO,06225.95526042,1 19751U 89001C   06225.95526042 -.00000068  00000-0  10000-3 0  7345\,2 19751 065.5734 321.0969 0014790 223.5825 137.7133 02.13155792136968,65.5734,0.001479,2.13155792,321.0969,223.5825,137.7133
19751,COSMOS 1989 (ETALON 1),NSO,06226.50790713,1 19751U 89001C   06226.50790713 -.00000072 +00000-0 +10000-3 0 07362\,2 19751 065.5725 321.0787 0014785 223.4787 201.8930 02.13155790136973,65.5725,0.0014785,2.1315579,321.0787,223.4787,201.893
19751,COSMOS 1989 (ETALON 1),NSO,06227.16827944,1 19751U 89001C   06227.16827944 -.00000076  00000-0  10000-3 0  7355\,2 19751 065.5733 321.0560 0014849 223.9099 348.1953 02.13155563136982,65.5733,0.0014849,2.13155563,321.056,223.9099,348.1953
19751,COSMOS 1989 (ETALON 1),NSO,06227.79004985,1 19751U 89001C   06227.79004985 -.00000080 +00000-0 +10000-3 0 07362\,2 19751 065.5720 321.0354 0014805 223.5231 105.7055 02.13155767136992,65.572,0.0014805,2.13155767,321.0354,223.5231,105.7055
19751,COSMOS 1989 (ETALON 1),NSO,06228.37928148,1 19751U 89001C   06228.37928148 -.00000082  00000-0  10000-3 0  7365\,2 19751 065.5714 321.0153 0014798 223.4261 197.9518 02.13155751137019,65.5714,0.0014798,2.13155751,321.0153,223.4261,197.9518
19751,COSMOS 1989 (ETALON 1),NSO,06228.72337546,1 19751U 89001C   06228.72337546 -.00000083 +00000-0 +10000-3 0 07372\,2 19751 065.5713 321.0037 0014789 223.4464 101.9733 02.13155745137011,65.5713,0.0014789,2.13155745,321.0037,223.4464,101.9733
19751,COSMOS 1989 (ETALON 1),NSO,06229.32992434,1 19751U 89001C   06229.32992434 -.00000084  00000-0  10000-3 0  7384\,2 19751 065.5703 320.9810 0014916 224.0876 206.7621 02.13155375137034,65.5703,0.0014916,2.13155375,320.981,224.0876,206.7621
19751,COSMOS 1989 (ETALON 1),NSO,06229.71158259,1 19751U 89001C   06229.71158259 -.00000084 +00000-0 +10000-3 0 07397\,2 19751 065.5718 320.9704 0014783 224.0147 139.7034 02.13155483137049,65.5718,0.0014783,2.13155483,320.9704,224.0147,139.7034
19751,COSMOS 1989 (ETALON 1),NSO,06230.21829539,1 19751U 89001C   06230.21829539 -.00000083  00000-0  10000-3 0  7399\,2 19751 065.5698 320.9510 0014890 223.9182 168.6279 02.13155415137055,65.5698,0.001489,2.13155415,320.951,223.9182,168.6279
19751,COSMOS 1989 (ETALON 1),NSO,06230.64640728,1 19751U 89001C   06230.64640728 -.00000082  00000-0  10000-3 0  7408\,2 19751 065.5696 320.9369 0014876 223.9140 137.1443 02.13155383137062,65.5696,0.0014876,2.13155383,320.9369,223.914,137.1443
19751,COSMOS 1989 (ETALON 1),NSO,06231.11720733,1 19751U 89001C   06231.11720733 -.00000080  00000-0  10000-3 0  7415\,2 19751 065.5694 320.9211 0014879 223.9182 138.4105 02.13155395137078,65.5694,0.0014879,2.13155395,320.9211,223.9182,138.4105
